ONEWEB-0056             
1 45159U 20008AE  25189.76031165  .00000538  00000+0  15054-2 0  9990
2 45159  87.8821 104.7542 0001896  77.9385 282.1955 13.10374721263200
ONEWEB-0057             
1 45160U 20008AF  25189.76778638  .00000234  00000+0  63342-3 0  9992
2 45160  87.8823 104.7662 0001791  80.2835 279.8495 13.10370172263374
ONEWEB-0058             
1 45161U 20008AG  25190.13644148  .00000692  00000+0  19472-2 0  9996
2 45161  87.8822 104.7045 0002102  79.0028 281.1336 13.10372853264241
ONEWEB-0059             
1 45162U 20008AH  25189.82755575  .00000645  00000+0  18110-2 0  9994
2 45162  87.8826 104.7638 0002087  78.1867 281.9494 13.10373484263352
ONEWEB-0062             
1 45163U 20008AJ  25190.15869767 -.00000128  00000+0 -40395-3 0  9991
2 45163  87.8821 104.6782 0002201  70.9072 289.2293 13.10369754264010
ONEWEB-0065             
1 45164U 20008AK  25190.13796195  .00000706  00000+0  19862-2 0  9998
2 45164  87.8829 104.7058 0001610  75.4061 284.7245 13.10372114263691
ONEWEB-0066             
1 45424U 20020A   25189.96381135 -.00000133  00000+0 -41068-3 0  9994
2 45424  87.8833  89.4743 0001996  88.4879 271.6477 13.11414327257692
ONEWEB-0067             
1 45425U 20020B   25190.15384629  .00000208  00000+0  54964-3 0  9999
2 45425  87.8821  89.3496 0001851  84.1991 275.9348 13.11419857257789
